12001,2022,07,27,06,00,AAXX 27061 12001 46/// /2612 10157 20082 30071 40109 52004 333 10177 20154==
12001,2022,07,27,12,00,AAXX 27121 12001 46/// /2512 10153 20099 30086 40124 52006 333 90760 91116==
12100,2022,07,27,06,00,AAXX 27061 12100 11570 72203 10136 20118 30134 40141 52005 60012 70182 85202 333 10188 20122 31014 55085 70012 90760 91112==
12100,2022,07,27,07,00,AAXX 27071 12100 42570 72606 10152 20104 30137 40144 53006 84230 333 91012 90710 91112==
12100,2022,07,27,08,00,AAXX 27081 12100 42570 72505 10158 20108 30140 40147 52008 872// 333 91011 90710 91114==
12100,2022,07,27,10,00,AAXX 27101 12100 42670 72607 10152 20102 30147 40154 52010 872//==
12100,2022,07,27,11,00,AAXX 27111 12100 42670 72709 10163 20097 30148 40155 51008 872// 333 90710 91118==
12100,2022,07,27,12,00,AAXX 27121 12100 12670 62710 10173 20113 30149 40156 52005 60001 86200 333 90760 91119==
12105,2022,07,27,06,00,AAXX 27061 12105 11681 72403 10130 20109 30100 40142 52005 69912 725// 8553/ 333 10179 20115 31010 55059==
12105,2022,07,27,07,00,AAXX 27071 12105 42681 82304 10138 20110 30103 40144 52007 885//==
12105,2022,07,27,08,00,AAXX 27081 12105 41660 82504 10133 20105 30107 40149 53009 72522 885//==
12105,2022,07,27,09,00,AAXX 27091 12105 41562 82706 10142 20108 30110 40151 52010 78082 889//==
12105,2022,07,27,10,00,AAXX 27101 12105 41681 82403 10155 20109 30110 40151 51007 72522 882//==
12105,2022,07,27,11,00,AAXX 27111 12105 41582 82403 10152 20102 30114 40155 52007 72522 882// 333 90710 91110==
12105,2022,07,27,12,00,AAXX 27121 12105 11660 82404 10135 20112 30117 40159 53007 69961 72582 889// 333 91009 90760 91110==
12115,2022,07,27,06,00,AAXX 27061 12115 11561 72507 10152 20104 30115 40129 53006 69922 780// 873// 333 10183 20149 31015 55078 70002 91012 90760 91116==
12115,2022,07,27,07,00,AAXX 27071 12115 41580 72906 10155 20100 30119 40133 53009 72522 873// 333 90710 91112==
12115,2022,07,27,08,00,AAXX 27081 12115 42580 72707 10165 20103 30121 40135 52009 872// 333 90710 91119==
12115,2022,07,27,09,00,AAXX 27091 12115 41580 72708 10164 20096 30124 40138 52009 70282 872// 333 90730 91119==
12115,2022,07,27,10,00,AAXX 27101 12115 42580 72505 10157 20115 30127 40141 52008 872// 333 91010 90710 91113==
12115,2022,07,27,11,00,AAXX 27111 12115 41569 72608 10162 20105 30130 40144 52009 78022 873// 333 91013 90710 91113==
12115,2022,07,27,12,00,AAXX 27121 12115 11580 72706 10157 20121 30132 40146 52008 60021 72582 873// 333 91013 90760 91119==
12120,2022,07,27,06,00,AAXX 27061 12120 11459 72306 10134 20118 30124 40128 52008 60022 78081 873// 333 10175 20133 31013 55111 70017==
12120,2022,07,27,07,00,AAXX 27071 12120 41460 72307 10143 20128 30124 40128 52005 78182 879// 333 91014 90710 91114==
12120,2022,07,27,08,00,AAXX 27081 12120 41481 72508 10169 20120 30125 40129 51006 72522 879// 333 90710 91114==
12120,2022,07,27,09,00,AAXX 27091 12120 41481 72708 10149 20126 30131 40135 53007 72582 873// 333 90730 91114==
12120,2022,07,27,10,00,AAXX 27101 12120 41481 72709 10155 20115 30134 40138 52010 72522 879// 333 90710 91112==
12120,2022,07,27,11,00,AAXX 27111 12120 42581 72709 10163 20112 30136 40140 51011 873//==
12120,2022,07,27,12,00,AAXX 27121 12120 11570 72610 10150 20125 30139 40143 52008 60021 78082 873// 333 90760 91114==
12125,2022,07,27,06,00,AAXX 27061 12125 15/81 /2304 10149 20101 30080 40127 51004 69912 333 10175 20108 3/007 55055 70003==
12125,2022,07,27,07,00,AAXX 27071 12125 45/81 /2404 10155 20109 30083 40130 52005 333 90710 91110==
12125,2022,07,27,08,00,AAXX 27081 12125 47/60 /2405 10142 20117 30088 40136 53008 752//==
12125,2022,07,27,09,00,AAXX 27091 12125 47/73 /2505 10148 20116 30092 40140 52012 781// 333 91010 90730 91110==
12125,2022,07,27,10,00,AAXX 27101 12125 47/59 /2506 10141 20120 30096 40144 52013 781// 333 90710 91110==
12125,2022,07,27,11,00,AAXX 27111 12125 45/81 /2506 10175 20117 30095 40142 50007==
12125,2022,07,27,12,00,AAXX 27121 12125 17/81 /2606 10153 20121 30097 40144 52005 69901 721// 333 90760 91111==
12135,2022,07,27,06,00,AAXX 27061 12135 12781 32605 10158 20108 30124 40128 51004 60002 83501 333 10192 20150 31014 55051 70006==
12135,2022,07,27,07,00,AAXX 27071 12135 42781 62607 10171 20102 30126 40130 52004 86500==
12135,2022,07,27,08,00,AAXX 27081 12135 42682 62707 10173 20097 30130 40134 53006 86200==
12135,2022,07,27,09,00,AAXX 27091 12135 42582 72706 10173 20109 30135 40139 53011 872// 333 91011 90730 91111==
12135,2022,07,27,10,00,AAXX 27101 12135 41582 72505 10161 20121 30137 40141 52011 72522 873// 333 90710 91113==
12135,2022,07,27,11,00,AAXX 27111 12135 41482 72706 10162 20116 30140 40144 52010 72522 873// 333 90710 91114==
12135,2022,07,27,12,00,AAXX 27121 12135 11682 72607 10171 20111 30139 40143 50004 69901 70181 872// 333 91012 90760 91114==
12155,2022,07,27,06,00,AAXX 27061 12155 12680 32304 10163 20112 30123 40134 52005 60002 83500 333 10201 20112 31010 55034 70034==
12155,2022,07,27,07,00,AAXX 27071 12155 42580 32506 10178 20102 30123 40134 51003 83800==
12155,2022,07,27,08,00,AAXX 27081 12155 42580 42506 10186 20088 30125 40136 52004 83230 333 91011 90710 91111==
12155,2022,07,27,09,00,AAXX 27091 12155 42580 52506 10192 20082 30128 40139 53005 84230 333 90730 91111==
12155,2022,07,27,10,00,AAXX 27101 12155 42580 62606 10193 20098 30130 40141 52007 85230==
12155,2022,07,27,11,00,AAXX 27111 12155 42580 62406 10193 20098 30130 40141 51005 85230 333 90710 91110==
12155,2022,07,27,12,00,AAXX 27121 12155 12580 72706 10191 20093 30132 40143 52004 60001 872// 333 90760 91111==
12160,2022,07,27,06,00,AAXX 27061 12160 12470 22205 10139 20107 39917 40138 52006 60022 81230 333 10180 20107 31010 55028 70060==
12160,2022,07,27,07,00,AAXX 27071 12160 42470 22404 10155 20107 39917 40137 51004 81230==
12160,2022,07,27,08,00,AAXX 27081 12160 42570 52404 10162 20091 39920 40139 52005 85230==
12160,2022,07,27,09,00,AAXX 27091 12160 42570 72406 10167 20081 39923 40142 53006 8523/ 333 90730 91111==
12160,2022,07,27,10,00,AAXX 27101 12160 42570 72406 10174 20077 39924 40142 52007 8523/ 333 90710 91109==
12160,2022,07,27,11,00,AAXX 27111 12160 42570 72404 10173 20079 39925 40143 52005 872//==
12160,2022,07,27,12,00,AAXX 27121 12160 12670 72604 10182 20085 39925 40143 51002 60001 872// 333 90760 91111==
12185,2022,07,27,06,00,AAXX 27061 12185 12977 02604 10157 20124 30003 40135 52008 60042 333 10165 20124 31011 55044 70046==
12185,2022,07,27,07,00,AAXX 27071 12185 42578 12606 10172 20106 30004 40135 52006 81200==
12185,2022,07,27,08,00,AAXX 27081 12185 42579 32505 10183 20099 30005 40136 52005 83200==
12185,2022,07,27,09,00,AAXX 27091 12185 42680 42805 10192 20097 30009 40139 53006 84200 333 91010 90730 91110==
12185,2022,07,27,10,00,AAXX 27101 12185 42682 62805 10199 20092 30010 40140 52006 86200 333 90710 91111==
12185,2022,07,27,11,00,AAXX 27111 12185 42680 63005 10202 20082 30010 40140 51005 86200==
12185,2022,07,27,12,00,AAXX 27121 12185 12680 52805 10202 20079 30009 40139 50000 60001 84230 333 90760 91111==
12195,2022,07,27,06,00,AAXX 27061 12195 12480 22804 10160 20127 39908 40128 52010 60072 81130 333 10173 20145 31014 55062 70071==
12195,2022,07,27,07,00,AAXX 27071 12195 42579 52804 10168 20115 39911 40131 52010 85200==
12195,2022,07,27,08,00,AAXX 27081 12195 42580 42903 10181 20123 39910 40129 50006 84200==
12195,2022,07,27,09,00,AAXX 27091 12195 42582 43003 10178 20104 39913 40132 52005 84200==
12195,2022,07,27,10,00,AAXX 27101 12195 42580 42605 10190 20100 39917 40135 53006 84200==
12195,2022,07,27,11,00,AAXX 27111 12195 42680 52904 10185 20090 39919 40138 52009 85100==
12195,2022,07,27,12,00,AAXX 27121 12195 12678 42604 10204 20093 39920 40137 51007 60001 84100==
12200,2022,07,27,06,00,AAXX 27061 12200 12782 62304 10142 20100 30144 40151 52005 60002 84530 333 10187 20116 31010 55097 70004 91009 90760 91109==
12200,2022,07,27,07,00,AAXX 27071 12200 42782 62504 10158 20101 30145 40152 53004 86500 333 90710 91108==
12200,2022,07,27,08,00,AAXX 27081 12200 42781 62704 10162 20089 30148 40155 52007 86500 333 90710 91109==
12200,2022,07,27,09,00,AAXX 27091 12200 42782 62803 10156 20090 30152 40159 53008 86500 333 90730 91111==
12200,2022,07,27,10,00,AAXX 27101 12200 42782 62605 10166 20088 30152 40159 51007 86500 333 91012 90710 91112==
12200,2022,07,27,11,00,AAXX 27111 12200 42784 52505 10175 20096 30153 40160 51005 85500 333 91011 90710 91111==
12200,2022,07,27,12,00,AAXX 27121 12200 12782 62603 10172 20091 30153 40160 52001 60001 86500 333 90760 91112==
12205,2022,07,27,06,00,AAXX 27061 12205 12/81 62503 10139 20101 30151 40160 52005 60002 84031 333 10203 20110 31009 55056==
12205,2022,07,27,07,00,AAXX 27071 12205 42680 62604 10158 20101 30152 40161 53004 81130==
12205,2022,07,27,08,00,AAXX 27081 12205 42681 72604 10166 20095 30153 40162 51006 8323/==
12205,2022,07,27,09,00,AAXX 27091 12205 42681 72605 10164 20086 30157 40166 53006 8523/==
12205,2022,07,27,10,00,AAXX 27101 12205 42680 72704 10171 20077 30157 40166 51005 8523/==
12205,2022,07,27,11,00,AAXX 27111 12205 42681 72605 10173 20082 30157 40166 51004 875// 333 91010 90710 91110==
12205,2022,07,27,12,00,AAXX 27121 12205 12681 72304 10178 20092 30157 40166 54000 60001 875// 333 90760 91110==
12210,2022,07,27,06,00,AAXX 27061 12210 15/70 /2303 10129 20099 30088 40152 53005 69912 333 10180 20098 3/009 55069 70002==
12210,2022,07,27,07,00,AAXX 27071 12210 45/70 /2204 10138 20104 30091 40155 52008==
12210,2022,07,27,08,00,AAXX 27081 12210 45/70 /2404 10155 20103 30092 40156 51008==
12210,2022,07,27,09,00,AAXX 27091 12210 45/70 /2605 10167 20091 30093 40156 52005==
12210,2022,07,27,10,00,AAXX 27101 12210 45/70 /2405 10162 20094 30096 40159 52005==
12210,2022,07,27,11,00,AAXX 27111 12210 45/70 /2303 10163 20097 30098 40161 52006 333 90710 91111==
12210,2022,07,27,12,00,AAXX 27121 12210 15/70 /2405 10172 20091 30099 40162 51006 69911 333 90760 91111==
12215,2022,07,27,06,00,AAXX 27061 12215 16/// /0003 10147 20094 39977 40147 52004 60002 333 10173 20112 3/009 55000 70000==
12215,2022,07,27,07,00,AAXX 27071 12215 46/// /2804 10150 20088 39983 40152 52009==
12215,2022,07,27,08,00,AAXX 27081 12215 46/// /0003 10157 20091 39984 40153 52009==
12215,2022,07,27,09,00,AAXX 27091 12215 46/// /0004 10163 20083 39989 40158 52011==
12215,2022,07,27,10,00,AAXX 27101 12215 46/// /2604 10170 20074 39989 40158 52007==
12215,2022,07,27,11,00,AAXX 27111 12215 46/// /2504 10178 20080 39987 40155 52003==
12215,2022,07,27,12,00,AAXX 27121 12215 16/// /0004 10175 20083 39988 40156 54000 60001==
12230,2022,07,27,06,00,AAXX 27061 12230 12/81 62604 10155 20085 30068 40156 53005 60002 83032 333 10191 20107 31008 55042==
12230,2022,07,27,07,00,AAXX 27071 12230 42681 52503 10167 20079 30070 40158 53006 82132==
12230,2022,07,27,08,00,AAXX 27081 12230 42681 62704 10169 20067 30072 40160 52008 85202==
12230,2022,07,27,09,00,AAXX 27091 12230 42781 62503 10185 20073 30073 40161 52005 86200==
12230,2022,07,27,10,00,AAXX 27101 12230 42781 62704 10187 20065 30074 40162 52004 86200 333 91009 90710 91109==
12230,2022,07,27,11,00,AAXX 27111 12230 42781 52804 10186 20067 30075 40163 52003 84202 333 90710 91109==
12230,2022,07,27,12,00,AAXX 27121 12230 12781 72903 10199 20062 30072 40159 58001 60001 84252 333 90760 91110==
12235,2022,07,27,06,00,AAXX 27061 12235 12780 32604 10141 20089 39943 40149 52006 69902 81130 333 10169 20091 30009 55045 70005==
12235,2022,07,27,07,00,AAXX 27071 12235 42780 32504 10155 20080 39944 40149 52005 82130==
12235,2022,07,27,08,00,AAXX 27081 12235 42681 52804 10159 20076 39947 40152 52007 85200 333 90710 91109==
12235,2022,07,27,09,00,AAXX 27091 12235 42781 62605 10169 20073 39949 40153 52006 862// 333 90730 91109==
12235,2022,07,27,10,00,AAXX 27101 12235 42680 62806 10171 20066 39951 40155 52007 8523/ 333 90710 91112==
12235,2022,07,27,11,00,AAXX 27111 12235 42680 52804 10174 20060 39953 40157 52006 85200 333 91009 90710 91110==
12235,2022,07,27,12,00,AAXX 27121 12235 12781 42705 10182 20061 39951 40154 50002 60001 84200 333 90760 91112==
12250,2022,07,27,06,00,AAXX 27061 12250 12782 72301 10153 20111 30066 40153 51006 60002 875// 333 10231 20106 30007 55010 70014==
12250,2022,07,27,07,00,AAXX 27071 12250 42681 72402 10165 20106 30069 40155 52005 878//==
12250,2022,07,27,08,00,AAXX 27081 12250 42681 72204 10182 20093 30070 40156 52005 872//==
12250,2022,07,27,09,00,AAXX 27091 12250 42680 62303 10196 20095 30071 40156 52005 86200 333 91008 90730 91108==
12250,2022,07,27,10,00,AAXX 27101 12250 42681 52704 10193 20086 30069 40154 50000 84230 333 90710 91109==
12250,2022,07,27,11,00,AAXX 27111 12250 42781 62404 10220 20078 30068 40153 58002 84230 333 90710 91110==
12250,2022,07,27,12,00,AAXX 27121 12250 12782 42804 10215 20066 30065 40150 57006 60001 83130 333 90760 91110==
12270,2022,07,27,06,00,AAXX 27061 12270 12/81 12703 10171 20100 39969 40145 50005 60002 81030 333 10197 20118 30010 55005==
12270,2022,07,27,07,00,AAXX 27071 12270 42681 12504 10181 20089 39970 40145 53002 81130==
12270,2022,07,27,08,00,AAXX 27081 12270 42682 22705 10191 20078 39971 40146 53001 82200==
12270,2022,07,27,09,00,AAXX 27091 12270 42682 52905 10194 20084 39973 40148 52004 85200==
12270,2022,07,27,10,00,AAXX 27101 12270 42682 62706 10194 20078 39976 40151 53006 862//==
12270,2022,07,27,11,00,AAXX 27111 12270 42682 62806 10198 20078 39976 40150 51005 862//==
12270,2022,07,27,12,00,AAXX 27121 12270 12780 62607 10221 20075 39972 40145 58001 60001 8523/==
12272,2022,07,27,06,00,AAXX 27061 12272 12/80 12502 10154 20116 39979 40142 52007 60062 81030 333 10196 20120 31011 70060==
12272,2022,07,27,07,00,AAXX 27071 12272 42575 12803 10171 20107 39978 40140 50004 81200==
12272,2022,07,27,08,00,AAXX 27081 12272 42681 52603 10175 20091 39980 40142 52003 85200==
12272,2022,07,27,09,00,AAXX 27091 12272 42681 52804 10182 20090 39983 40144 53004 84201==
12272,2022,07,27,10,00,AAXX 27101 12272 42682 62404 10190 20077 39984 40145 52006 84230==
12272,2022,07,27,11,00,AAXX 27111 12272 42682 62905 10189 20073 39985 40146 52005 84230 333 90710 91109==
12272,2022,07,27,12,00,AAXX 27121 12272 12681 62503 10203 20080 39984 40144 50001 60001 84230 333 90760 91109==
12280,2022,07,27,06,00,AAXX 27061 12280 12678 12603 10164 20118 39984 40137 52008 60022 81502 333 10171 20136 31013 55049 70020==
12280,2022,07,27,07,00,AAXX 27071 12280 42580 22903 10176 20112 39985 40137 52006 82100==
12280,2022,07,27,08,00,AAXX 27081 12280 42675 32904 10185 20093 39986 40137 51005 83200==
12280,2022,07,27,09,00,AAXX 27091 12280 42681 52804 10185 20093 39990 40141 53006 84201 333 90730 91109==
12280,2022,07,27,10,00,AAXX 27101 12280 42681 52704 10197 20090 39991 40142 52006 85200 333 90710 91109==
12280,2022,07,27,11,00,AAXX 27111 12280 42781 53003 10203 20095 39990 40141 50004 85201 333 90710 91109==
12280,2022,07,27,12,00,AAXX 27121 12280 12781 62903 10199 20079 39991 40142 52001 60001 85209 333 90760 91109==
12285,2022,07,27,06,00,AAXX 27061 12285 15/70 /0002 10169 20108 30031 40143 52011 60002 333 10175 20144 3/013 55000 70030==
12285,2022,07,27,07,00,AAXX 27071 12285 45/70 /0002 10183 20094 30031 40143 52007==
12285,2022,07,27,08,00,AAXX 27081 12285 45/70 /0003 10192 20079 30031 40142 52004==
12285,2022,07,27,09,00,AAXX 27091 12285 45/70 /0003 10206 20084 30032 40143 52002==
12285,2022,07,27,10,00,AAXX 27101 12285 45/70 /0003 10208 20087 30034 40145 52002==
12285,2022,07,27,11,00,AAXX 27111 12285 45/70 /0004 10212 20085 30034 40145 52004==
12285,2022,07,27,12,00,AAXX 27121 12285 15/70 /0003 10212 20087 30033 40144 54000 60001==
12295,2022,07,27,06,00,AAXX 27061 12295 12382 82703 10153 20138 39954 40135 53010 60062 885// 333 10218 20144 31014 55127 70059 85709==
12295,2022,07,27,07,00,AAXX 27071 12295 42482 72902 10161 20138 39957 40137 52012 878// 333 84814==
12295,2022,07,27,08,00,AAXX 27081 12295 42482 63002 10172 20137 39958 40138 51011 86800==
12295,2022,07,27,09,00,AAXX 27091 12295 42582 52903 10182 20117 39959 40138 52005 85200==
12295,2022,07,27,10,00,AAXX 27101 12295 42581 42604 10195 20105 39963 40141 53006 84200 333 90710 91108==
12295,2022,07,27,11,00,AAXX 27111 12295 42679 42803 10202 20103 39964 40142 52006 84200==
12295,2022,07,27,12,00,AAXX 27121 12295 12681 43003 10206 20095 39965 40143 51006 60001 84200 333 90760 91108==
12300,2022,07,27,06,00,AAXX 27061 12300 12/82 73103 10142 20084 30077 40166 53006 60002 8707/ 333 10192 20138 31013 55034 70043==
12300,2022,07,27,07,00,AAXX 27071 12300 42582 73004 10156 20083 30080 40169 52008 81171==
12300,2022,07,27,08,00,AAXX 27081 12300 42684 72904 10168 20077 30085 40173 52012 83138==
12300,2022,07,27,09,00,AAXX 27091 12300 42684 72905 10175 20064 30085 40173 51008 84438 333 91010 90730 91110==
12300,2022,07,27,10,00,AAXX 27101 12300 42684 73203 10173 20076 30086 40174 51006 874// 333 90710 91110==
12300,2022,07,27,11,00,AAXX 27111 12300 42784 72805 10180 20052 30086 40174 52001 86401 333 90710 91109==
12300,2022,07,27,12,00,AAXX 27121 12300 12784 72904 10185 20060 30085 40173 50000 60001 874// 333 90760 91110==
12310,2022,07,27,06,00,AAXX 27061 12310 12/80 73002 10147 20089 30107 40172 52007 60002 8603/ 333 10193 20138 31013 55060 70008==
12310,2022,07,27,07,00,AAXX 27071 12310 42580 73003 10157 20080 30112 40177 52011 8113/==
12310,2022,07,27,08,00,AAXX 27081 12310 42680 72904 10166 20072 30114 40179 52010 8113/==
12310,2022,07,27,09,00,AAXX 27091 12310 42680 73004 10172 20064 30115 40180 51008 8513/==
12310,2022,07,27,10,00,AAXX 27101 12310 42780 72904 10178 20054 30115 40180 51003 8513/==
12310,2022,07,27,11,00,AAXX 27111 12310 42780 73003 10184 20059 30115 40179 51001 8513/==
12310,2022,07,27,12,00,AAXX 27121 12310 12780 73103 10198 20058 30114 40178 58001 60001 864// 333 90760 91109==
12330,2022,07,27,06,00,AAXX 27061 12330 12683 73004 10166 20085 30058 40164 53008 69902 875// 333 10198 20153 30014 55036 70001==
12330,2022,07,27,07,00,AAXX 27071 12330 42684 62805 10165 20074 30060 40166 53008 86500==
12330,2022,07,27,08,00,AAXX 27081 12330 42684 42705 10184 20075 30060 40165 51008 82231==
12330,2022,07,27,09,00,AAXX 27091 12330 42784 42507 10194 20051 30060 40165 51002 82231==
12330,2022,07,27,10,00,AAXX 27101 12330 42784 42806 10206 20054 30059 40163 58001 83231 333 90710 91112==
12330,2022,07,27,11,00,AAXX 27111 12330 42784 42806 10206 20054 30060 40164 54000 83232 333 90710 91111==
12330,2022,07,27,12,00,AAXX 27121 12330 12784 42807 10212 20047 30061 40165 53001 60001 83202 333 91012 90760 91112==
12360,2022,07,27,06,00,AAXX 27061 12360 15/77 /3102 10164 20107 30022 40152 51007 60002 333 10200 20117 3/008 55003 70005==
12360,2022,07,27,07,00,AAXX 27071 12360 45/77 /3003 10178 20089 30022 40152 51001==
12360,2022,07,27,08,00,AAXX 27081 12360 45/80 /3003 10179 20085 30026 40156 52006 333 90710 91107==
12360,2022,07,27,09,00,AAXX 27091 12360 45/81 /3004 10189 20094 30028 40157 53006 333 90730 91107==
12360,2022,07,27,10,00,AAXX 27101 12360 45/75 /2804 10194 20096 30026 40155 50004 333 90710 91111==
12360,2022,07,27,11,00,AAXX 27111 12360 45/76 /2804 10200 20093 30026 40155 54000==
12360,2022,07,27,12,00,AAXX 27121 12360 15/69 /2504 10204 20096 30022 40150 57006 60001 333 90760 91111==
12375,2022,07,27,06,00,AAXX 27061 12375 12/81 13105 10171 20107 30023 40150 51014 69902 81030 333 10185 20153 31014 70032==
12375,2022,07,27,07,00,AAXX 27071 12375 42/81 13203 10184 20100 30023 40149 51007 81030==
12375,2022,07,27,08,00,AAXX 27081 12375 42/81 12805 10196 20095 30024 40150 52004 81030==
12375,2022,07,27,09,00,AAXX 27091 12375 42681 32905 10208 20106 30027 40153 53004 82130==
12375,2022,07,27,10,00,AAXX 27101 12375 42681 42805 10209 20107 30028 40153 52005 83230==
12375,2022,07,27,11,00,AAXX 27111 12375 42681 42905 10206 20112 30028 40154 51004 84200 333 90710 91109==
12375,2022,07,27,12,00,AAXX 27121 12375 12781 42805 10209 20110 30028 40153 51001 60001 84200 333 90760 91109==
12385,2022,07,27,06,00,AAXX 27061 12385 11112 82903 10160 20158 39956 40141 52011 69982 710// 886// 333 10181 20139 32012 55093 70133 88702==
12385,2022,07,27,07,00,AAXX 27071 12385 41267 83204 10159 20153 39961 40146 52014 76122 877// 333 87706==
12385,2022,07,27,08,00,AAXX 27081 12385 41577 63303 10179 20150 39964 40148 52012 72122 86200==
12385,2022,07,27,09,00,AAXX 27091 12385 41576 33203 10193 20118 39966 40149 51010 70161 83100==
12385,2022,07,27,10,00,AAXX 27101 12385 42680 23303 10207 20099 39969 40151 52008 82100 333 91008 90710 91108==
12385,2022,07,27,11,00,AAXX 27111 12385 42780 73203 10206 20104 39969 40151 51005 878//==
12385,2022,07,27,12,00,AAXX 27121 12385 11780 73103 10214 20102 39967 40149 50001 69901 70261 878// 333 90760 91108==
12399,2022,07,27,06,00,AAXX 27061 12399 12581 73402 10169 20156 39972 40135 53012 60072 875// 333 10185 20148 31014 55131 70076==
12399,2022,07,27,07,00,AAXX 27071 12399 42581 73402 10175 20157 39975 40138 52014 8653/==
12399,2022,07,27,08,00,AAXX 27081 12399 42481 73502 10186 20157 39976 40138 51011 878//==
12399,2022,07,27,09,00,AAXX 27091 12399 42481 73102 10194 20153 39979 40141 52007 878//==
12399,2022,07,27,10,00,AAXX 27101 12399 42481 63203 10196 20162 39983 40145 53008 86300==
12399,2022,07,27,11,00,AAXX 27111 12399 42577 63204 10207 20155 39984 40145 51008 86200 333 90710 91109==
12399,2022,07,27,12,00,AAXX 27121 12399 12577 53204 10207 20129 39986 40147 52007 60001 85200 333 90760 91109==
12400,2022,07,27,06,00,AAXX 27061 12400 12775 73302 10152 20100 39942 40172 53011 69902 8253/ 333 10195 20141 30014 55061==
12400,2022,07,27,07,00,AAXX 27071 12400 42584 73002 10160 20090 39945 40174 52011 83832==
12400,2022,07,27,08,00,AAXX 27081 12400 42684 53004 10175 20064 39946 40174 51010 82831==
12400,2022,07,27,09,00,AAXX 27091 12400 42783 52804 10186 20058 39947 40174 52005 82850 333 91009 90730 91109==
12400,2022,07,27,10,00,AAXX 27101 12400 42682 52904 10187 20065 39944 40171 58001 81832 333 90710 91110==
12400,2022,07,27,11,00,AAXX 27111 12400 42784 43104 10198 20065 39943 40169 57003 81832==
12400,2022,07,27,12,00,AAXX 27121 12400 12784 33104 10202 20062 39945 40171 55002 60001 82242 333 90760 91111==
12415,2022,07,27,06,00,AAXX 27061 12415 12682 83004 10166 20117 30019 40168 53009 60002 885// 333 10241 20143 30012 55027==
12415,2022,07,27,07,00,AAXX 27071 12415 42482 73104 10165 20125 30022 40171 52013 878//==
12415,2022,07,27,08,00,AAXX 27081 12415 42582 72905 10174 20123 30025 40174 51014 878//==
12415,2022,07,27,09,00,AAXX 27091 12415 42582 73204 10190 20108 30026 40174 52007 878//==
12415,2022,07,27,10,00,AAXX 27101 12415 42682 72904 10205 20091 30023 40170 50001 8383/==
12415,2022,07,27,11,00,AAXX 27111 12415 42682 72603 10212 20085 30022 40169 58003 8583/==
12415,2022,07,27,12,00,AAXX 27121 12415 11682 82905 10209 20078 30023 40170 55003 69901 78022 8337/==
12418,2022,07,27,06,00,AAXX 27061 12418 12265 83103 10157 20142 30053 40164 53008 69902 886// 333 10199 20129 30011 55017 87706==
12418,2022,07,27,07,00,AAXX 27071 12418 42570 73204 10173 20128 30056 40167 52011 878//==
12418,2022,07,27,08,00,AAXX 27081 12418 42681 73104 10193 20098 30059 40169 51013 85838==
12418,2022,07,27,09,00,AAXX 27091 12418 42782 52705 10205 20078 30058 40167 50005 84838 333 90730 91108==
12418,2022,07,27,10,00,AAXX 27101 12418 42782 42806 10207 20073 30057 40166 50001 82138 333 90710 91109==
12418,2022,07,27,11,00,AAXX 27111 12418 42782 32805 10216 20063 30056 40165 57003 81131==
12418,2022,07,27,12,00,AAXX 27121 12418 12782 52705 10219 20061 30058 40167 55000 60001 82151 333 90760 91109==
12424,2022,07,27,06,00,AAXX 27061 12424 12782 72701 10177 20151 30019 40163 53005 60002 8257/ 333 10242 20133 30010 55022==
12424,2022,07,27,07,00,AAXX 27071 12424 42682 72903 10190 20145 30020 40163 53006 82870==
12424,2022,07,27,08,00,AAXX 27081 12424 42684 73003 10196 20128 30022 40165 51008 82271==
12424,2022,07,27,09,00,AAXX 27091 12424 42684 72904 10216 20127 30022 40164 51003 84871==
12424,2022,07,27,10,00,AAXX 27101 12424 42684 63203 10213 20116 30023 40165 52003 82270==
12424,2022,07,27,11,00,AAXX 27111 12424 42684 63103 10225 20100 30023 40165 52001 82432==
12424,2022,07,27,12,00,AAXX 27121 12424 12784 73203 10215 20097 30025 40167 52003 60001 8247/ 333 90760 91109==
12435,2022,07,27,06,00,AAXX 27061 12435 12682 70901 10179 20103 39993 40158 52004 60002 8653/ 333 10223 20131 31010 55018 70030==
12435,2022,07,27,07,00,AAXX 27071 12435 42683 71501 10180 20120 39994 40159 53003 875//==
12435,2022,07,27,08,00,AAXX 27081 12435 42582 72002 10185 20127 39993 40158 50005 879//==
12435,2022,07,27,09,00,AAXX 27091 12435 41562 73302 10161 20155 39999 40165 53006 78082 879//==
12435,2022,07,27,10,00,AAXX 27101 12435 41581 73003 10183 20142 39998 40163 50004 72522 872//==
12435,2022,07,27,11,00,AAXX 27111 12435 42579 72904 10206 20135 39997 40161 50004 8523/==
12435,2022,07,27,12,00,AAXX 27121 12435 11680 72904 10210 20119 39995 40158 57004 60051 70182 8683/==
12455,2022,07,27,06,00,AAXX 27061 12455 12881 70802 10175 20115 39922 40159 51004 60002 8153/ 333 10221 20132 31011 55019 70043==
12455,2022,07,27,07,00,AAXX 27071 12455 42882 71302 10187 20113 39923 40159 53001 8153/==
12455,2022,07,27,08,00,AAXX 27081 12455 42681 71801 10198 20121 39924 40160 53002 8127/==
12455,2022,07,27,09,00,AAXX 27091 12455 42681 72603 10204 20119 39926 40161 52004 8627/==
12455,2022,07,27,10,00,AAXX 27101 12455 42680 52503 10223 20114 39922 40156 58001 83250==
12455,2022,07,27,11,00,AAXX 27111 12455 42682 72603 10238 20118 39920 40152 58004 873//==
12455,2022,07,27,12,00,AAXX 27121 12455 11466 70103 10183 20155 39927 40164 53001 60011 78022 8496/ 333 84916 90760 91109==
12465,2022,07,27,06,00,AAXX 27061 12465 12/70 53601 10168 20109 39943 40158 51008 60002 84051 333 10204 20143 31012 55016 20000 70038==
12465,2022,07,27,07,00,AAXX 27071 12465 42/70 20002 10186 20102 39940 40153 57001 82031==
12465,2022,07,27,08,00,AAXX 27081 12465 42770 40002 10199 20103 39943 40155 52003 81150==
12465,2022,07,27,09,00,AAXX 27091 12465 42670 62803 10203 20104 39945 40157 53002 83150==
12465,2022,07,27,10,00,AAXX 27101 12465 42670 72703 10213 20113 39944 40155 50004 8525/==
12465,2022,07,27,11,00,AAXX 27111 12465 42570 73002 10202 20117 39945 40157 52002 8593/==
12465,2022,07,27,12,00,AAXX 27121 12465 12670 72703 10203 20118 39946 40158 53001 60001 8593/==
12469,2022,07,27,06,00,AAXX 27061 12469 12781 33503 10176 20109 39931 40156 51010 60002 81531 333 10191 20135 31013 55031 70001==
12469,2022,07,27,07,00,AAXX 27071 12469 42581 43203 10187 20105 39932 40157 53003 81251==
12469,2022,07,27,08,00,AAXX 27081 12469 42681 60102 10198 20097 39931 40155 50003 81251==
12469,2022,07,27,09,00,AAXX 27091 12469 42982 62504 10226 20094 39931 40153 54000 8325/==
12469,2022,07,27,10,00,AAXX 27101 12469 42782 62802 10220 20098 39931 40153 56001 862//==
12469,2022,07,27,11,00,AAXX 27111 12469 42783 62903 10223 20101 39932 40154 53001 8523/==
12469,2022,07,27,12,00,AAXX 27121 12469 12683 72603 10233 20100 39929 40150 58002 60001 8535/==
12488,2022,07,27,06,00,AAXX 27061 12488 11480 53103 10164 20148 39998 40149 52016 69902 70141 83630 333 10174 20123 31012 55082 70108==
12488,2022,07,27,07,00,AAXX 27071 12488 42578 43403 10180 20145 39999 40149 51012 84200==
12488,2022,07,27,08,00,AAXX 27081 12488 42681 13103 10190 20118 30002 40152 51010 81100==
12488,2022,07,27,09,00,AAXX 27091 12488 42682 13103 10206 20107 30005 40154 52007 81100==
12488,2022,07,27,10,00,AAXX 27101 12488 42680 13203 10213 20098 30005 40153 51006 81100==
12488,2022,07,27,11,00,AAXX 27111 12488 42681 43103 10223 20108 30005 40153 51003 84200==
12488,2022,07,27,12,00,AAXX 27121 12488 12682 73303 10224 20102 30006 40154 53001 60001 872//==
12495,2022,07,27,06,00,AAXX 27061 12495 11004 83003 10153 20150 39860 40144 53013 69912 742// 886// 333 10175 20141 31012 55083 70114 88701==
12495,2022,07,27,07,00,AAXX 27071 12495 41008 83204 10157 20154 39864 40148 57013 74244 886// 333 88701==
12495,2022,07,27,08,00,AAXX 27081 12495 41256 83304 10168 20163 39866 40149 51014 72822 886// 333 88706==
12495,2022,07,27,09,00,AAXX 27091 12495 41468 73204 10190 20164 39872 40153 52012 70342 872// 333 87810==
12495,2022,07,27,10,00,AAXX 27101 12495 42580 63305 10200 20135 39875 40155 52011 86200==
12495,2022,07,27,11,00,AAXX 27111 12495 42682 53303 10210 20122 39874 40153 50008 85200==
12495,2022,07,27,12,00,AAXX 27121 12495 11681 33304 10220 20117 39872 40150 50000 60001 70141 83201 333 90760 91109==
12497,2022,07,27,06,00,AAXX 27061 12497 12470 73103 10169 20152 39924 40136 53014 60032 878// 333 10180 20150 32015 55125 70071==
12497,2022,07,27,07,00,AAXX 27071 12497 42470 63403 10184 20155 39926 40137 51013 86801==
12497,2022,07,27,08,00,AAXX 27081 12497 42570 63103 10196 20153 39929 40139 51011 86200==
12497,2022,07,27,09,00,AAXX 27091 12497 42570 62703 10212 20153 39930 40139 52006 86300==
12497,2022,07,27,10,00,AAXX 27101 12497 41570 73005 10194 20161 39933 40143 52007 72522 879//==
12497,2022,07,27,11,00,AAXX 27111 12497 41570 63203 10201 20169 39936 40146 52007 72522 86900 333 90710 91112==
12497,2022,07,27,12,00,AAXX 27121 12497 11670 43105 10221 20137 39935 40144 50005 69951 70181 84200 333 90760 91112==
12500,2022,07,27,06,00,AAXX 27061 12500 12684 73002 10158 20124 39768 40173 53008 60002 875// 333 10222 20137 30013 55070==
12500,2022,07,27,07,00,AAXX 27071 12500 42684 73003 10162 20116 39769 40174 53010 8553/==
12500,2022,07,27,08,00,AAXX 27081 12500 41681 73003 10160 20110 39772 40177 51013 76022 875//==
12500,2022,07,27,09,00,AAXX 27091 12500 41683 73003 10162 20105 39774 40179 52006 72122 875//==
12500,2022,07,27,10,00,AAXX 27101 12500 42582 72803 10170 20101 39774 40178 51005 878//==
12500,2022,07,27,11,00,AAXX 27111 12500 42582 73302 10171 20102 39777 40181 52005 8587/==
12500,2022,07,27,12,00,AAXX 27121 12500 11680 72903 10169 20096 39777 40181 52003 69901 76162 8357/==
12510,2022,07,27,06,00,AAXX 27061 12510 11/00 92906 10073 20073 38390 48506 53006 60002 74544 89/// 333 10105 20069 30/// 55064==
12510,2022,07,27,07,00,AAXX 27071 12510 41/00 92602 10078 20078 38392 48508 52009 74544 89///==
12510,2022,07,27,08,00,AAXX 27081 12510 41/00 92802 10083 20083 38393 48509 51009 74544 89///==
12510,2022,07,27,09,00,AAXX 27091 12510 41/00 72606 10082 20082 38393 48509 51003 74144 865//==
12510,2022,07,27,10,00,AAXX 27101 12510 41/00 92703 10083 20083 38394 48510 52002 74744 89/// 333 90710 91108==
12510,2022,07,27,11,00,AAXX 27111 12510 41/00 92706 10072 20072 38396 48512 53003 74544 89/// 333 90710 91109==
12510,2022,07,27,12,00,AAXX 27121 12510 11/00 93205 10064 20064 38397 48514 52004 69941 76044 89/// 333 90760 91109==
12520,2022,07,27,06,00,AAXX 27061 12520 11681 73601 10140 20129 39747 40170 53003 69902 721// 875// 333 10221 20115 30010 55029==
12520,2022,07,27,07,00,AAXX 27071 12520 42683 60000 10167 20145 39748 40167 53003 85831 333 81841 85641==
12520,2022,07,27,08,00,AAXX 27081 12520 42684 60702 10192 20129 39748 40164 51006 85830 333 82844 85656==
12520,2022,07,27,09,00,AAXX 27091 12520 42583 51202 10203 20125 39745 40159 58002 84331 333 84933==
12520,2022,07,27,10,00,AAXX 27101 12520 41684 60302 10207 20124 39743 40156 58005 78022 86931 333 86940==
12520,2022,07,27,11,00,AAXX 27111 12520 41683 70203 10195 20120 39747 40162 55001 78082 879// 333 87938 90710 91109==
12520,2022,07,27,12,00,AAXX 27121 12520 11582 70602 10195 20143 39747 40162 51002 69941 78082 879// 333 87926 90760 91109==
12530,2022,07,27,06,00,AAXX 27061 12530 12570 70301 10163 20145 39970 40164 52006 60002 8483/ 333 10211 20147 31015 55022 70031==
12530,2022,07,27,07,00,AAXX 27071 12530 42570 71601 10165 20147 39972 40166 52006 8383/==
12530,2022,07,27,08,00,AAXX 27081 12530 42670 71501 10175 20144 39974 40168 51007 8253/==
12530,2022,07,27,09,00,AAXX 27091 12530 42575 61701 10199 20140 39973 40165 50003 8113/==
12530,2022,07,27,10,00,AAXX 27101 12530 42580 52001 10218 20134 39969 40160 58003 82230==
12530,2022,07,27,11,00,AAXX 27111 12530 42580 40501 10237 20138 39969 40158 56005 83230==
12530,2022,07,27,12,00,AAXX 27121 12530 12680 43402 10251 20130 39964 40152 57009 60001 84200==
12540,2022,07,27,06,00,AAXX 27061 12540 12470 73302 10160 20147 39922 40167 53008 60002 8553/ 333 10190 20125 31010 55019 70141 85611==
12540,2022,07,27,07,00,AAXX 27071 12540 42470 73101 10166 20146 39925 40170 52010 875// 333 87611==
12540,2022,07,27,08,00,AAXX 27081 12540 42470 73501 10178 20152 39924 40167 50007 8623/ 333 81812 85612==
12540,2022,07,27,09,00,AAXX 27091 12540 42470 73202 10184 20153 39924 40167 51002 8483/==
12540,2022,07,27,10,00,AAXX 27101 12540 42575 63501 10198 20154 39922 40164 57003 82831==
12540,2022,07,27,11,00,AAXX 27111 12540 42575 73601 10213 20145 39922 40163 57002 81881==
12540,2022,07,27,12,00,AAXX 27121 12540 12576 60102 10223 20128 39916 40156 58008 60001 81938==
12550,2022,07,27,06,00,AAXX 27061 12550 12470 63502 10163 20136 39814 40162 52009 69912 8213/ 333 10191 20140 31013 55024 70049==
12550,2022,07,27,07,00,AAXX 27071 12550 42482 63302 10175 20126 39815 40162 53005 8213/==
12550,2022,07,27,08,00,AAXX 27081 12550 42581 63401 10184 20126 39817 40163 52007 8223/==
12550,2022,07,27,09,00,AAXX 27091 12550 42581 72101 10193 20130 39817 40162 51003 8125/==
12550,2022,07,27,10,00,AAXX 27101 12550 42580 52102 10209 20123 39815 40158 50000 84230==
12550,2022,07,27,11,00,AAXX 27111 12550 42580 53002 10211 20114 39816 40159 55001 84230==
12550,2022,07,27,12,00,AAXX 27121 12550 12580 43002 10224 20115 39813 40154 57004 60001 83230==
12560,2022,07,27,06,00,AAXX 27061 12560 12470 70402 10168 20144 39832 40162 53006 69912 8625/ 333 10178 20118 31010 55013 70060 86811==
12560,2022,07,27,07,00,AAXX 27071 12560 42470 71301 10176 20147 39835 40164 52008 8523/ 333 85812==
12560,2022,07,27,08,00,AAXX 27081 12560 42465 72002 10177 20155 39838 40167 52009 8623/ 333 86816==
12560,2022,07,27,09,00,AAXX 27091 12560 42465 71702 10183 20157 39838 40166 51006 8523/ 333 85811==
12560,2022,07,27,10,00,AAXX 27101 12560 42465 71901 10190 20159 39836 40163 50001 8423/ 333 84815==
12560,2022,07,27,11,00,AAXX 27111 12560 42570 61301 10211 20154 39835 40160 58003 81230==
12560,2022,07,27,12,00,AAXX 27121 12560 12581 62402 10220 20149 39833 40157 57005 60001 83238==
12566,2022,07,27,06,00,AAXX 27061 12566 11360 71903 10158 20145 39877 40163 52008 60002 70341 876// 333 10179 20117 31011 70033 87707==
12566,2022,07,27,07,00,AAXX 27071 12566 41458 72204 10164 20149 39880 40166 52008 71022 875// 333 87610==
12566,2022,07,27,08,00,AAXX 27081 12566 42465 62004 10176 20150 39884 40169 52011 83550 333 83612==
12566,2022,07,27,09,00,AAXX 27091 12566 42470 62002 10196 20155 39883 40166 50006 82550 333 82615==
12566,2022,07,27,10,00,AAXX 27101 12566 42575 62502 10206 20156 39881 40163 50001 82230==
12566,2022,07,27,11,00,AAXX 27111 12566 42581 71502 10226 20149 39880 40160 57004 8325/==
12566,2022,07,27,12,00,AAXX 27121 12566 12581 61902 10232 20142 39875 40154 58008 60001 82232==
12570,2022,07,27,06,00,AAXX 27061 12570 12480 23503 10176 20131 39846 40153 52011 60002 81231 333 10181 20155 30015 55063 70043==
12570,2022,07,27,07,00,AAXX 27071 12570 42582 20203 10190 20125 39847 40152 52007 81201==
12570,2022,07,27,08,00,AAXX 27081 12570 42582 33203 10196 20116 39852 40157 52010 82202==
12570,2022,07,27,09,00,AAXX 27091 12570 42683 43502 10201 20116 39855 40159 52009 84201==
12570,2022,07,27,10,00,AAXX 27101 12570 42683 52901 10216 20119 39854 40157 50007 84231==
12570,2022,07,27,11,00,AAXX 27111 12570 42683 53303 10216 20107 39852 40155 50000 83251==
12570,2022,07,27,12,00,AAXX 27121 12570 12783 63002 10226 20113 39853 40155 55002 60001 85232==
12575,2022,07,27,06,00,AAXX 27061 12575 15/62 /2901 10167 20151 39908 40157 52010 69932 333 10174 20131 3/012 55054 70034==
12575,2022,07,27,07,00,AAXX 27071 12575 45/61 /3502 10177 20153 39910 40158 53006==
12575,2022,07,27,08,00,AAXX 27081 12575 45/62 /3002 10184 20153 39914 40161 52010==
12575,2022,07,27,09,00,AAXX 27091 12575 45/66 /3201 10210 20168 39916 40161 52008==
12575,2022,07,27,10,00,AAXX 27101 12575 45/68 /3201 10218 20154 39915 40159 50005==
12575,2022,07,27,11,00,AAXX 27111 12575 45/71 /2902 10236 20154 39912 40155 58002==
12575,2022,07,27,12,00,AAXX 27121 12575 15/72 /3101 10235 20150 39910 40153 57006 60001==
12580,2022,07,27,06,00,AAXX 27061 12580 11257 82703 10158 20150 39893 40150 52010 60002 71011 886// 333 10189 20146 31013 70021 88705==
12580,2022,07,27,07,00,AAXX 27071 12580 41257 82802 10165 20154 39896 40153 52009 71022 886// 333 88706==
12580,2022,07,27,08,00,AAXX 27081 12580 41358 82603 10170 20155 39898 40154 52007 71022 886// 333 88707==
12580,2022,07,27,09,00,AAXX 27091 12580 42360 82603 10178 20151 39906 40162 52013 886// 333 88709==
12580,2022,07,27,10,00,AAXX 27101 12580 42470 63002 10207 20157 39905 40158 50009 86200 333 86816==
12580,2022,07,27,11,00,AAXX 27111 12580 42580 62903 10223 20152 39903 40155 50005 86200==
12580,2022,07,27,12,00,AAXX 27121 12580 12680 63203 10238 20142 39900 40150 57006 60001 86200==
12585,2022,07,27,06,00,AAXX 27061 12585 11259 83305 10164 20153 39888 40147 52010 69902 710// 886// 333 10173 20149 31015 55081 70048==
12585,2022,07,27,07,00,AAXX 27071 12585 42267 83305 10168 20153 39891 40149 52011 886//==
12585,2022,07,27,08,00,AAXX 27081 12585 42480 53504 10187 20159 39893 40150 51009 85200==
12585,2022,07,27,09,00,AAXX 27091 12585 42580 53304 10207 20150 39900 40155 53012 85200==
12585,2022,07,27,10,00,AAXX 27101 12585 42580 63303 10213 20149 39900 40154 51009 862//==
12585,2022,07,27,11,00,AAXX 27111 12585 42680 63103 10217 20133 39899 40153 50006 85201==
12585,2022,07,27,12,00,AAXX 27121 12585 12676 63102 10227 20129 39899 40152 57001 60001 84208==
12595,2022,07,27,06,00,AAXX 27061 12595 11359 73004 10170 20155 39879 40141 53010 60022 710// 876// 333 10192 20146 31014 70015==
12595,2022,07,27,07,00,AAXX 27071 12595 42462 72703 10180 20160 39880 40141 52009 875//==
12595,2022,07,27,08,00,AAXX 27081 12595 42464 73004 10187 20158 39884 40145 52010 875//==
12595,2022,07,27,09,00,AAXX 27091 12595 42464 73204 10199 20161 39888 40148 53009 8623/==
12595,2022,07,27,10,00,AAXX 27101 12595 42464 73106 10189 20158 39895 40156 53015 872//==
12595,2022,07,27,11,00,AAXX 27111 12595 42565 52805 10206 20156 39896 40155 51012 85200==
12595,2022,07,27,12,00,AAXX 27121 12595 12670 43004 10215 20153 39890 40148 50002 60001 84200==
12600,2022,07,27,06,00,AAXX 27061 12600 12460 52702 10163 20136 39696 40165 52005 60002 84101 333 10165 20108 31010 55014 70149==
12600,2022,07,27,07,00,AAXX 27071 12600 42462 72802 10173 20138 39700 40167 53007 8623/==
12600,2022,07,27,08,00,AAXX 27081 12600 42565 73202 10182 20137 39700 40166 51006 85231==
12600,2022,07,27,09,00,AAXX 27091 12600 42565 70402 10193 20145 39700 40164 51004 8423/==
12600,2022,07,27,10,00,AAXX 27101 12600 42565 60201 10203 20137 39697 40159 58003 8423/==
12600,2022,07,27,11,00,AAXX 27111 12600 42570 63202 10214 20143 39698 40158 55002 8423/==
12600,2022,07,27,12,00,AAXX 27121 12600 12575 60101 10211 20133 39694 40155 57006 60001 82238==
12625,2022,07,27,06,00,AAXX 27061 12625 12780 53501 10151 20119 39188 42797 53002 69912 83306 333 10151 20104 31009 55029 70312==
12625,2022,07,27,07,00,AAXX 27071 12625 42781 41501 10177 20103 39188 42796 51002 83208==
12625,2022,07,27,08,00,AAXX 27081 12625 42780 31201 10190 20108 39190 42798 52003 83201==
12625,2022,07,27,09,00,AAXX 27091 12625 42782 33602 10196 20126 39191 42799 53003 83202==
12625,2022,07,27,10,00,AAXX 27101 12625 42740 53602 10191 20121 39191 42799 51003 84206==
12625,2022,07,27,11,00,AAXX 27111 12625 42680 71101 10199 20103 39192 42799 52002 84206==
12625,2022,07,27,12,00,AAXX 27121 12625 12681 53202 10208 20109 39188 42796 58003 60001 84208==
12650,2022,07,27,06,00,AAXX 27061 12650 12/82 40304 10075 20048 38018 48510 53006 60002 82502 333 10076 20055 31/// 55037 70195==
12650,2022,07,27,07,00,AAXX 27071 12650 42/82 50402 10075 20055 38021 48514 53008 83202==
12650,2022,07,27,08,00,AAXX 27081 12650 42/82 30202 10098 20056 38026 48515 53011 82202 333 90710 91109==
12650,2022,07,27,09,00,AAXX 27091 12650 42/80 60104 10105 20070 38028 48516 52010 85202 333 90730 91111==
12650,2022,07,27,10,00,AAXX 27101 12650 42/65 70102 10112 20084 38030 48517 51009 872// 333 90710 91108==
12650,2022,07,27,11,00,AAXX 27111 12650 42/70 70103 10122 20088 38032 48517 52006 86202==
12650,2022,07,27,12,00,AAXX 27121 12650 12/82 60102 10127 20082 38031 48515 50003 60001 85202 333 90760 91111==
12660,2022,07,27,06,00,AAXX 27061 12660 12563 12501 10147 20139 39812 40162 51005 60012 81500 333 10161 20114 32011 55041 70127==
12660,2022,07,27,07,00,AAXX 27071 12660 42577 32801 10169 20142 39812 40159 51003 81202==
12660,2022,07,27,08,00,AAXX 27081 12660 42573 50301 10198 20150 39813 40157 52002 85200==
12660,2022,07,27,09,00,AAXX 27091 12660 42568 50402 10213 20156 39814 40156 53002 85201==
12660,2022,07,27,10,00,AAXX 27101 12660 42570 63602 10214 20155 39815 40157 52003 86200==
12660,2022,07,27,11,00,AAXX 27111 12660 42670 50502 10225 20146 39813 40153 50000 82256==
12660,2022,07,27,12,00,AAXX 27121 12660 12680 50201 10237 20141 39811 40150 58003 60001 83232==
12670,2022,07,27,06,00,AAXX 27061 12670 12366 23002 10158 20145 39764 40154 52009 60012 82600 333 10179 20136 31013 55086 70056==
12670,2022,07,27,07,00,AAXX 27071 12670 42466 62903 10170 20148 39764 40152 51005 86600 333 86710==
12670,2022,07,27,08,00,AAXX 27081 12670 42469 63203 10185 20152 39767 40153 52006 86200 333 86814==
12670,2022,07,27,09,00,AAXX 27091 12670 42469 63104 10194 20151 39772 40157 53008 86200==
12670,2022,07,27,10,00,AAXX 27101 12670 42578 43004 10200 20150 39774 40159 52010 84200==
12670,2022,07,27,11,00,AAXX 27111 12670 42580 53303 10207 20143 39773 40157 50006 85200==
12670,2022,07,27,12,00,AAXX 27121 12670 12680 53502 10218 20139 39771 40153 58001 60001 84202==
12690,2022,07,27,06,00,AAXX 27061 12690 11358 83102 10158 20143 39659 40153 52007 60042 710// 886// 333 10182 20150 32015 55083 70111 88709==
12690,2022,07,27,07,00,AAXX 27071 12690 42464 83102 10164 20141 39661 40154 51007 885// 333 88612==
12690,2022,07,27,08,00,AAXX 27081 12690 42569 72801 10175 20146 39663 40154 52005 875//==
12690,2022,07,27,09,00,AAXX 27091 12690 42576 62701 10191 20150 39667 40156 53008 86200==
12690,2022,07,27,10,00,AAXX 27101 12690 42581 63102 10204 20145 39668 40155 52007 85201==
12690,2022,07,27,11,00,AAXX 27111 12690 42681 63202 10215 20139 39666 40151 50003 85201==
12690,2022,07,27,12,00,AAXX 27121 12690 12781 53203 10216 20140 39665 40149 58002 60001 84201==
12695,2022,07,27,06,00,AAXX 27061 12695 16/57 /0002 10166 20150 39822 40150 52011 60022 333 10190 20157 3/015 55077 70041==
12695,2022,07,27,07,00,AAXX 27071 12695 46/59 /0001 10172 20148 39824 40151 52008==
12695,2022,07,27,08,00,AAXX 27081 12695 46/61 /0002 10182 20155 39825 40152 52007==
12695,2022,07,27,09,00,AAXX 27091 12695 46/62 /0001 10189 20154 39831 40157 52009==
12695,2022,07,27,10,00,AAXX 27101 12695 46/67 /0002 10201 20156 39833 40158 52009==
12695,2022,07,27,11,00,AAXX 27111 12695 46/62 /0003 10203 20154 39834 40159 52010==
12695,2022,07,27,12,00,AAXX 27121 12695 16/64 /0002 10204 20149 39834 40158 52003 60001==